1 20253U 89077A   26101.77245653 -.00000361  00000-0  00000-0 0  9993
2 20253  12.4403 351.5647 0007894   1.2253 250.9774  1.00267795259894
1 20776U 90079A   26101.81250353  .00000132  00000-0  00000-0 0  9990
2 20776  13.3615 350.2635 0002675  36.9089 138.7273  1.00271843130227
1 22787U 93056A   26101.86352219  .00000131  00000-0  00000-0 0  9990
2 22787  11.8725   3.9179 0009338 348.1685 187.4705  1.00271651117889
1 23467U 95003A   26101.54805166 -.00000016  00000-0  00000-0 0  9992
2 23467   9.7027  13.4517 0003516   1.3787 194.5362  1.00270621114286
1 23967U 96042A   26101.08625524 -.00000246  00000-0  00000-0 0  9993
2 23967  11.0540  17.4449 0004354  95.4065  84.1792  1.00235469108813
1 25639U 99009B   26101.64018189 -.00000292  00000-0  00000-0 0  9993
2 25639  12.0284   9.4605 0002829 292.6721 275.3214  0.99030659 50491
1 25967U 99063A   26101.21017005 -.00000181  00000-0  00000-0 0  9993
2 25967   9.8577  27.5638 0004126 317.6024 267.0912  1.00275183 96676
1 27168U 02001A   26101.93863988  .00000105  00000-0  00000-0 0  9997
2 27168  11.1011  22.3011 0099860   6.5789 168.0944  1.00274037 32299
1 28117U 03057A   26101.89212315 -.00000096  00000-0  00000-0 0  9991
2 28117   8.9100  34.1495 0002984 329.4747 233.0678  1.00272152 81787
1 30794U 07007B   26101.89602316 -.00000266  00000-0  00000-0 0  9997
2 30794   5.1337  74.5279 0003943 315.5493 227.8142  1.00273879 70030
1 32294U 07056B   26101.86164412  .00000146  00000-0  00000-0 0  9991
2 32294   5.0851  74.2753 0003820 300.4134 160.6774  1.00269322 67534
1 35943U 09054B   26101.92963899  .00000026  00000-0  00000-0 0  9995
2 35943   0.0768  81.4804 0003943 317.1058 199.2437  1.00273537 60645
1 36582U 10021B   26101.87981642  .00000090  00000-0  00000-0 0  9992
2 36582   0.0091 214.1254 0002775 183.9895 131.8689  1.00271309 58292
1 38098U 12011A   26101.89142980 -.00000056  00000-0  00000-0 0  9996
2 38098   0.0253 112.9237 0001753 278.2153 201.9590  1.00271045  6528
1 39034U 12075A   26101.90988091  .00000101  00000-0  00000-0 0  9990
2 39034   0.0703 357.4369 0003863  26.4180 196.5816  1.00272835 48498
1 40296U 14069A   26101.88059711  .00000165  00000-0  00000-0 0  9992
2 40296  63.4484 221.8795 6672556 270.9989  19.2650  2.00583345 83900
1 44453U 19046A   26100.42453458 -.00000018  00000-0  00000-0 0  9994
2 44453  63.0678  59.4596 7055328 274.6678  14.9864  2.00614883 48983
1 45254U 20015A   26100.67082101 -.00000010  00000-0  00000-0 0  9994
2 45254  65.5109 326.1672 6880049 279.0530  14.7958  2.00602772 44936
1 52145U 22030A   26100.67883988  .00000244  00000-0  00000-0 0  9990
2 52145  62.6709 148.0304 6766669 272.9073  17.7850  2.00615690 29676
1 26635U 00080A   21013.46269075 0.00000000  00000-0  00000-0 0    09
2 26635   9.2857  29.8038 0014383 186.3086 173.6859  1.00273100    09
1 34810U 09020A   25358.93258989 0.00000000  00000-0  00000-0 0    06
2 34810   2.7881  81.1408 0004972 246.2147 113.7417  1.00270000    08
1 40614U 15022B   25359.93496764 0.00000000  00000-0  00000-0 0    00
2 40614   0.0160 108.2839 0003453 352.8976   7.0980  1.00270000    04
